{"type":"FeatureCollection","features":[{"type":"Feature","geometry":{"type":"Point","coordinates":[-124.159515,41.135957]},"properties":{"OBJECTID":24711,"feature_id":253743,"feature_name":"Sue-meg Point","feature_class":"Cape","state_name":"California","state_numeric":"06","county_name":"Humboldt","county_numeric":"023","map_name":"Trinidad OE N","date_created":"1981-01-19T00:00:00Z","date_edited":"2023-03-24T06:01:06Z","bgn_type":2,"bgn_authority":1,"bgn_date":"2022-12-08T00:00:00Z","prim_lat_dms":"410809N","prim_long_dms":"1240934W","prim_lat_dec":41.1359568,"prim_long_dec":-124.1595155,"source_lat_dms":null,"source_lat_dec":0,"source_long_dec":0,"rop_renaming_former_name":"Patricks Point","rop_renaming_park_uinit":"Sue-meg SP","rop_renaming_park_district":"North Coast Redwoods","rop_renaming_county":"Humboldt","rop_renaming_new_name":"Sue-meg Point","rop_renaming_meaning":"Traditional name of feature","rop_renaming_tribal_partner":"The Yurok Tribe","rop_id":"N0010","Image":"https://raw.githubusercontent.com/neha-a768/ROP/refs/heads/main/assets/images/090-P89324A.jpg","title":"Forest","description":"A picture of a forest"}},{"type":"Feature","geometry":{"type":"Point","coordinates":[-124.017833,40.317417]},"properties":{"OBJECTID":29090,"feature_id":235311,"feature_name":"Grasshopper Creek Ridge","feature_class":"Ridge","state_name":"California","state_numeric":"06","county_name":"Humboldt","county_numeric":"023","map_name":"Bull Creek","date_created":"1981-01-19T00:00:00Z","date_edited":"2022-09-10T03:02:42Z","bgn_type":2,"bgn_authority":4,"bgn_date":"2022-09-08T00:00:00Z","prim_lat_dms":"401903N","prim_long_dms":"1240104W","prim_lat_dec":40.3174173,"prim_long_dec":-124.0178327,"source_lat_dms":null,"source_lat_dec":0,"source_long_dec":0,"rop_renaming_former_name":"Sq Creek Ridge","rop_renaming_park_uinit":"Humboldt Redwoods SP","rop_renaming_park_district":"North Coast Redwoods","rop_renaming_county":"Humboldt","rop_renaming_new_name":"Grasshopper Creek Ridge","rop_renaming_meaning":"","rop_renaming_tribal_partner":"Bear River Band of Rohnerville Rancheria","rop_id":"N0013","Image":"github.com/neha-a768/ROP/blob/main/assets/images/090-P89334A.jpg?raw=true","title":"Tree","description":"A picture of a tree "}}]}